NORAD_CAT_ID,OBJECT_NAME,OBJECT_TYPE,EPOCH,MEAN_MOTION,ECCENTRICITY,INCLINATION,RA_OF_ASC_NODE,ARG_OF_PERICENTER,MEAN_ANOMALY,BSTAR,MEAN_MOTION_DOT,MEAN_MOTION_DDOT,TLE_LINE0,TLE_LINE1,TLE_LINE2,SEMIMAJOR_AXIS,PERIOD,APOGEE,PERIGEE,DECAYED
53420.0,STARLINK-4552,PAYLOAD,2024-06-19 21:58:34,15.08838976,0.0001531,53.2189,52.3054,60.3369,299.7776,0.00017698,2.53e-05,0.0,0 STARLINK-4552,1 53420U 22097AJ  24171.91567593  .00002530  00000-0  17698-3 0  9998,2 53420  53.2189  52.3054 0001531  60.3369 299.7776 15.08838976103859,6917.884,95.438,540.808,538.689,0.0
53420.0,STARLINK-4552,PAYLOAD,2024-06-20 01:09:20,15.08844061,0.000154,53.2194,51.7106,64.7019,295.4132,0.00020341,2.951e-05,0.0,0 STARLINK-4552,1 53420U 22097AJ  24172.04815220  .00002951  00000-0  20341-3 0  9992,2 53420  53.2194  51.7106 0001540  64.7019 295.4132 15.08844061103419,6917.868,95.437,540.798,538.668,0.0
53420.0,STARLINK-4552,PAYLOAD,2024-06-20 09:06:16,15.08844699,0.0001341,53.2199,50.2246,72.9022,287.2116,0.00012846,1.757e-05,0.0,0 STARLINK-4552,1 53420U 22097AJ  24172.37935363  .00001757  00000-0  12846-3 0  9993,2 53420  53.2199  50.2246 0001341  72.9022 287.2116 15.08844699103921,6917.866,95.437,540.659,538.803,0.0
53420.0,STARLINK-4552,PAYLOAD,2024-06-20 21:49:21,15.08846241,0.0001546,53.22,47.8459,81.5695,278.5472,9.1495e-06,-1.42e-06,0.0,0 STARLINK-4552,1 53420U 22097AJ  24172.90927745 -.00000142  00000-0  91495-5 0  9994,2 53420  53.2200  47.8459 0001546  81.5695 278.5472 15.08846241104004,6917.861,95.437,540.796,538.657,0.0
53420.0,STARLINK-4552,PAYLOAD,2024-06-20 23:24:44,15.08846922,0.0001411,53.2185,47.5507,81.1715,278.9437,8.4918e-06,-1.53e-06,0.0,0 STARLINK-4552,1 53420U 22097AJ  24172.97551646 -.00000153  00000-0  84918-5 0  9998,2 53420  53.2185  47.5507 0001411  81.1715 278.9437 15.08846922103557,6917.859,95.437,540.7,538.748,0.0
53420.0,STARLINK-4552,PAYLOAD,2024-06-21 21:40:08,15.08846439,0.0001129,53.2166,43.3898,87.1738,272.9384,-7.0943e-05,-1.417e-05,0.0,0 STARLINK-4552,1 53420U 22097AJ  24173.90287560 -.00001417  00000-0 -70943-4 0  9990,2 53420  53.2166  43.3898 0001129  87.1738 272.9384 15.08846439104155,6917.861,95.437,540.507,538.945,0.0
53420.0,STARLINK-4552,PAYLOAD,2024-06-22 19:55:32,15.08835957,0.0001236,53.2177,39.226,86.0822,274.0312,0.000175,2.498e-05,0.0,0 STARLINK-4552,1 53420U 22097AJ  24174.83023198  .00002498  00000-0  17500-3 0  9995,2 53420  53.2177  39.2260 0001236  86.0822 274.0312 15.08835957103836,6917.893,95.438,540.613,538.903,0.0
53420.0,STARLINK-4552,PAYLOAD,2024-06-22 21:30:54,15.0884598,0.0001299,53.2176,38.9288,86.5036,273.6104,5.8092e-05,6.37e-06,0.0,0 STARLINK-4552,1 53420U 22097AJ  24174.89646838  .00000637  00000-0  58092-4 0  9998,2 53420  53.2176  38.9288 0001299  86.5036 273.6104 15.08845980104306,6917.862,95.437,540.626,538.828,0.0
53420.0,STARLINK-4552,PAYLOAD,2024-06-23 21:21:42,15.08839174,0.0001441,53.2188,34.4669,99.5048,260.6107,7.2709e-06,-1.72e-06,0.0,0 STARLINK-4552,1 53420U 22097AJ  24175.89007320 -.00000172  00000-0  72709-5 0  9993,2 53420  53.2188  34.4669 0001441  99.5048 260.6107 15.08839174103990,6917.883,95.438,540.745,538.751,0.0
53420.0,STARLINK-4552,PAYLOAD,2024-06-24 00:32:28,15.08841145,0.000138,53.2184,33.8708,95.4683,264.6467,9.8362e-06,-1.31e-06,0.0,0 STARLINK-4552,1 53420U 22097AJ  24176.02255177 -.00000131  00000-0  98362-5 0  9992,2 53420  53.2184  33.8708 0001380  95.4683 264.6467 15.08841145104473,6917.877,95.437,540.697,538.787,0.0
53420.0,STARLINK-4552,PAYLOAD,2024-06-24 21:12:29,15.08839798,0.0001423,53.2188,30.0035,99.2597,260.8557,1.453e-05,-5.7e-07,0.0,0 STARLINK-4552,1 53420U 22097AJ  24176.88367224 -.00000057  00000-0  14530-4 0  9994,2 53420  53.2188  30.0035 0001423  99.2597 260.8557 15.08839798104607,6917.881,95.438,540.73,538.762,0.0
53420.0,STARLINK-4552,PAYLOAD,2024-06-25 21:03:16,15.08841153,0.0001394,53.2187,25.5433,95.174,264.9411,6.7892e-05,7.93e-06,0.0,0 STARLINK-4552,1 53420U 22097AJ  24177.87727071  .00000793  00000-0  67892-4 0  9999,2 53420  53.2187  25.5433 0001394  95.1740 264.9411 15.08841153104296,6917.877,95.437,540.706,538.778,0.0
53420.0,STARLINK-4552,PAYLOAD,2024-06-27 20:44:50,15.08845682,0.0001127,53.2175,16.6249,88.5967,271.5154,6.3557e-06,-1.87e-06,0.0,0 STARLINK-4552,1 53420U 22097AJ  24179.86447459 -.00000187  00000-0  63557-5 0  9992,2 53420  53.2175  16.6249 0001127  88.5967 271.5154 15.08845682104592,6917.863,95.437,540.508,538.948,0.0
53420.0,STARLINK-4552,PAYLOAD,2024-06-28 06:17:09,15.08836593,0.0001177,53.2175,14.8413,96.0839,264.0287,0.00013932,1.93e-05,0.0,0 STARLINK-4552,1 53420U 22097AJ  24180.26191642  .00001930  00000-0  13932-3 0  9994,2 53420  53.2175  14.8413 0001177  96.0839 264.0287 15.08836593105116,6917.891,95.438,540.57,538.942,0.0
53420.0,STARLINK-4552,PAYLOAD,2024-06-28 20:35:35,15.08868171,0.0001133,53.2167,12.1625,134.081,226.0275,0.0001957,2.83e-05,0.0,0 STARLINK-4552,1 53420U 22097AJ  24180.85805374  .00002830  00000-0  19570-3 0  9997,2 53420  53.2167  12.1625 0001133 134.0810 226.0275 15.08868171104747,6917.794,95.436,540.443,538.875,0.0
53420.0,STARLINK-4552,PAYLOAD,2024-06-29 12:29:30,15.08821104,0.0001061,53.217,9.1904,83.639,276.4723,-0.00015361,-2.73e-05,0.0,0 STARLINK-4552,1 53420U 22097AJ  24181.52049486 -.00002730  00000-0 -15361-3 0  9991,2 53420  53.2170   9.1904 0001061  83.6390 276.4723 15.08821104104842,6917.938,95.439,540.537,539.069,0.0
53420.0,STARLINK-4552,PAYLOAD,2024-06-29 18:51:03,15.08826755,0.0001146,53.2165,8.0011,83.4458,276.6664,-9.936e-05,-1.868e-05,0.0,0 STARLINK-4552,1 53420U 22097AJ  24181.78545180 -.00001868  00000-0 -99360-4 0  9994,2 53420  53.2165   8.0011 0001146  83.4458 276.6664 15.08826755104887,6917.921,95.438,540.579,538.993,0.0
53420.0,STARLINK-4552,PAYLOAD,2024-06-29 22:01:48,15.08832665,0.0001076,53.2176,7.4057,80.112,279.9993,-4.3957e-05,-9.87e-06,0.0,0 STARLINK-4552,1 53420U 22097AJ  24181.91792729 -.00000987  00000-0 -43957-4 0  9994,2 53420  53.2176   7.4057 0001076  80.1120 279.9993 15.08832665105366,6917.903,95.438,540.512,539.023,0.0
53420.0,STARLINK-4552,PAYLOAD,2024-06-30 12:20:16,15.0883957,8.46e-05,53.2176,4.7328,55.6315,304.4757,4.3435e-05,4.04e-06,0.0,0 STARLINK-4552,1 53420U 22097AJ  24182.51408059  .00000404  00000-0  43435-4 0  9994,2 53420  53.2176   4.7328 0000846  55.6315 304.4757 15.08839570104996,6917.882,95.438,540.332,539.161,0.0
53420.0,STARLINK-4552,PAYLOAD,2024-06-30 18:41:48,15.08853298,9.91e-05,53.2176,3.5408,78.3825,281.7278,0.00014986,2.099e-05,0.0,0 STARLINK-4552,1 53420U 22097AJ  24182.77902881  .00002099  00000-0  14986-3 0  9994,2 53420  53.2176   3.5408 0000991  78.3825 281.7278 15.08853298105035,6917.84,95.437,540.39,539.019,0.0
53420.0,STARLINK-4552,PAYLOAD,2024-07-01 18:32:36,15.08834203,0.0001033,53.217,359.08,72.0464,288.0641,0.0002097,3.051e-05,0.0,0 STARLINK-4552,1 53420U 22097AJ  24183.77264055  .00003051  00000-0  20970-3 0  9998,2 53420  53.2170 359.0800 0001033  72.0464 288.0641 15.08834203105187,6917.898,95.438,540.478,539.048,0.0
53420.0,STARLINK-4552,PAYLOAD,2024-07-02 12:01:51,15.08840604,0.0001267,53.2169,355.811,71.016,289.097,-8.3297e-05,-1.613e-05,0.0,0 STARLINK-4552,1 53420U 22097AJ  24184.50128755 -.00001613  00000-0 -83297-4 0  9992,2 53420  53.2169 355.8110 0001267  71.0160 289.0970 15.08840604105755,6917.879,95.438,540.62,538.867,0.0
53420.0,STARLINK-4552,PAYLOAD,2024-07-02 18:23:23,15.08845782,0.0001013,53.2172,354.6188,67.0252,293.0847,2.6679e-05,1.37e-06,0.0,0 STARLINK-4552,1 53420U 22097AJ  24184.76624127  .00000137  00000-0  26679-4 0  9993,2 53420  53.2172 354.6188 0001013  67.0252 293.0847 15.08845782105791,6917.863,95.437,540.428,539.027,0.0
53420.0,STARLINK-4552,PAYLOAD,2024-07-03 18:14:10,15.08833759,9.12e-05,53.2169,350.1625,88.1972,271.9125,1.6498e-05,-2.5e-07,0.0,0 STARLINK-4552,1 53420U 22097AJ  24185.75984839 -.00000025  00000-0  16498-4 0  9997,2 53420  53.2169 350.1625 0000912  88.1972 271.9125 15.08833759105485,6917.899,95.438,540.395,539.134,0.0
53420.0,STARLINK-4552,PAYLOAD,2024-07-04 03:46:29,15.08833138,9.68e-05,53.2175,348.3766,82.1621,277.9481,5.1978e-05,5.39e-06,0.0,0 STARLINK-4552,1 53420U 22097AJ  24186.15728900  .00000539  00000-0  51978-4 0  9998,2 53420  53.2175 348.3766 0000968  82.1621 277.9481 15.08833138106004,6917.901,95.438,540.436,539.097,0.0
53420.0,STARLINK-4552,PAYLOAD,2024-07-04 19:40:20,15.08848377,8.95e-05,53.2173,345.4019,108.2521,251.8569,0.00010925,1.452e-05,0.0,0 STARLINK-4552,1 53420U 22097AJ  24186.81967826  .00001452  00000-0  10925-3 0  9994,2 53420  53.2173 345.4019 0000895 108.2521 251.8569 15.08848377105647,6917.855,95.437,540.339,539.101,0.0
53420.0,STARLINK-4552,PAYLOAD,2024-07-05 03:37:16,15.0884722,0.0001141,53.2194,343.9131,72.3655,287.7462,-5.2807e-07,-2.96e-06,0.0,0 STARLINK-4552,1 53420U 22097AJ  24187.15088174 -.00000296  00000-0 -52807-6 0  9997,2 53420  53.2194 343.9131 0001141  72.3655 287.7462 15.08847220105693,6917.858,95.437,540.513,538.934,0.0
53420.0,STARLINK-4552,PAYLOAD,2024-07-05 14:44:58,15.08836063,0.0001507,53.2203,341.8305,54.8371,305.2762,0.00010365,1.362e-05,0.0,0 STARLINK-4552,1 53420U 22097AJ  24187.61456857  .00001362  00000-0  10365-3 0  9998,2 53420  53.2203 341.8305 0001507  54.8371 305.2762 15.08836063106222,6917.892,95.438,540.8,538.715,0.0
53420.0,STARLINK-4552,PAYLOAD,2024-07-05 17:55:44,15.08844662,0.0001195,53.2183,341.2381,70.6239,289.4882,5.4548e-05,5.8e-06,0.0,0 STARLINK-4552,1 53420U 22097AJ  24187.74704409  .00000580  00000-0  54548-4 0  9994,2 53420  53.2183 341.2381 0001195  70.6239 289.4882 15.08844662106241,6917.866,95.437,540.558,538.904,0.0
53420.0,STARLINK-4552,PAYLOAD,2024-07-06 03:28:03,15.08842729,0.0001018,53.2179,339.4534,78.5043,281.6064,-1.0284e-06,-3.04e-06,0.0,0 STARLINK-4552,1 53420U 22097AJ  24188.14448572 -.00000304  00000-0 -10284-5 0  9991,2 53420  53.2179 339.4534 0001018  78.5043 281.6064 15.08842729105842,6917.872,95.437,540.441,539.033,0.0
